     2.100          NAVIGATION                              RINEX VERSION / TYPE
fic2rin                                 12/15/2017 00:09:24 PGM / RUN BY / DATE
                                                            END OF HEADER
18 17 12 14  9 59 44.0  .633437652141D-03  .227373675443D-12  .000000000000D+00
     .430000000000D+02 -.166875000000D+02  .589310261424D-08 -.388466872862D+00
    -.802800059319D-06  .182362340856D-01  .515393912792D-05  .515363555145D+04
     .381584000000D+06 -.186264514923D-06  .124694970686D+01  .100582838058D-06
     .925825008396D+00  .264937500000D+03 -.176630080863D+01 -.909609317451D-08
    -.131434046184D-09  .100000000000D+01  .197900000000D+04  .000000000000D+00
     .240000000000D+01  .000000000000D+00 -.111758708954D-07  .430000000000D+02
     .374406000000D+06  .400000000000D+01
19 17 12 14  9 59 44.0 -.470002647489D-03  .227373675443D-11  .000000000000D+00
     .430000000000D+02 -.859375000000D+02  .394659296287D-08  .106314341873D+01
    -.436231493950D-05  .976435746998D-02  .104568898678D-04  .515369690704D+04
     .381584000000D+06 -.156462192535D-06 -.698663865857D+00  .484287738800D-07
     .979158930265D+00  .191656250000D+03  .110195368740D+01 -.786104172966D-08
    -.571452374714D-10  .100000000000D+01  .197900000000D+04  .000000000000D+00
     .240000000000D+01  .000000000000D+00 -.153668224812D-07  .430000000000D+02
     .374406000000D+06  .400000000000D+01
25 17 12 14  9 59 44.0 -.505531206727D-03 -.625277607469D-11  .000000000000D+00
     .100000000000D+01 -.185000000000D+02  .443232748137D-08  .511272799376D+00
    -.110641121864D-05  .681243475992D-02  .258907675743D-05  .515371462059D+04
     .381584000000D+06 -.223517417908D-07 -.183914970511D+01  .558793544769D-07
     .975505425488D+00  .338812500000D+03  .804779526778D+00 -.836249118847D-08
    -.122862260563D-09  .100000000000D+01  .197900000000D+04  .000000000000D+00
     .240000000000D+01  .000000000000D+00  .558793544769D-08  .100000000000D+01
     .374406000000D+06  .400000000000D+01
 1 17 12 14 10  0  0.0 -.167344696820D-04 -.261479726760D-11  .000000000000D+00
     .800000000000D+02  .160937500000D+02  .445661420730D-08  .219901911304D+01
     .821426510811D-06  .716225255746D-02  .853836536407D-05  .515367438507D+04
     .381600000000D+06 -.147148966789D-06  .257291848027D+00 -.614672899246D-07
     .969769184722D+00  .219093750000D+03  .626823992250D+00 -.787711382769D-08
     .520735976458D-09  .100000000000D+01  .197900000000D+04  .000000000000D+00
     .240000000000D+01  .000000000000D+00  .558793544769D-08  .800000000000D+02
     .374406000000D+06  .400000000000D+01
 2 17 12 14 10  0  0.0  .255723949522D-03 -.100044417195D-10  .000000000000D+00
     .710000000000D+02  .218750000000D+01  .471198198725D-08  .261972905000D+01
     .502914190292D-07  .174480128335D-01  .880286097527D-05  .515364116096D+04
     .381600000000D+06  .102445483208D-06  .199660930531D+00 -.249594449997D-06
     .948802440927D+00  .197562500000D+03 -.192812859736D+01 -.776389482595D-08
     .409659921123D-09  .100000000000D+01  .197900000000D+04  .000000000000D+00
     .240000000000D+01  .000000000000D+00 -.204890966415D-07  .710000000000D+02
     .374406000000D+06  .400000000000D+01
 3 17 12 14 10  0  0.0 -.272542238235D-04  .613908923697D-11  .000000000000D+00
     .820000000000D+02 -.217500000000D+02  .492877673191D-08  .113974848173D+01
    -.117346644402D-05  .116203422658D-02  .559724867344D-05  .515359191513D+04
     .381600000000D+06  .149011611938D-07  .129991080552D+01  .540167093277D-07
     .959982169145D+00  .269218750000D+03  .594016306135D+00 -.822677124947D-08
    -.232152527227D-09  .100000000000D+01  .197900000000D+04  .000000000000D+00
     .240000000000D+01  .000000000000D+00  .232830643654D-08  .820000000000D+02
     .374406000000D+06  .400000000000D+01
 4 17 12 14 10  0  0.0  .267885625362D-04  .193267624127D-11  .000000000000D+00
     .145000000000D+03 -.330625000000D+02  .563059167960D-08 -.671041267585D+00
    -.158697366714D-05  .924753944855D-02  .279396772385D-05  .515365618324D+04
     .381600000000D+06 -.372529029846D-08 -.181494812467D+01  .135973095894D-06
     .980308655139D+00  .335093750000D+03  .895419024151D+00 -.831891794490D-08
    -.123933733766D-09  .100000000000D+01  .197900000000D+04  .000000000000D+00
     .240000000000D+01  .630000000000D+02 -.195577740669D-07  .145000000000D+03
     .374406000000D+06  .400000000000D+01
 5 17 12 14 10  0  0.0 -.198301859200D-04  .113686837722D-11  .000000000000D+00
     .870000000000D+02 -.206250000000D+02  .521450291926D-08 -.113636292356D+01
    -.105239450932D-05  .529612903483D-02  .499933958054D-05  .515359871483D+04
     .381600000000D+06  .134110450745D-06  .128032940857D+01  .372529029846D-08
     .946909900381D+00  .275437500000D+03  .632615698092D+00 -.839499254228D-08
    -.168578450541D-09  .100000000000D+01  .197900000000D+04  .000000000000D+00
     .240000000000D+01  .000000000000D+00 -.107102096081D-07  .870000000000D+02
     .374406000000D+06  .400000000000D+01
 6 17 12 14 10  0  0.0  .413130968809D-03  .102318153949D-11  .000000000000D+00
     .940000000000D+02  .637500000000D+01  .442125559161D-08  .248382896801D+01
     .474974513054D-06  .741193420254D-03  .870600342751D-05  .515380134201D+04
     .381600000000D+06  .558793544769D-07  .248959423599D+00 -.651925802231D-07
     .969517363855D+00  .214250000000D+03 -.130229153646D+01 -.790175771135D-08
     .452161691492D-09  .100000000000D+01  .197900000000D+04  .000000000000D+00
     .240000000000D+01  .000000000000D+00  .465661287308D-08  .940000000000D+02
     .374406000000D+06  .400000000000D+01
 7 17 12 14 10  0  0.0  .266135670245D-03 -.534328137292D-11  .000000000000D+00
     .820000000000D+02  .108406250000D+03  .453126017375D-08  .153628401928D+01
     .567734241486D-05  .110728491563D-01  .694207847118D-05  .515371064949D+04
     .381600000000D+06 -.141561031342D-06 -.287036217331D+01  .931322574615D-07
     .960600945457D+00  .246718750000D+03 -.254523445553D+01 -.824712924032D-08
     .165721188667D-09  .100000000000D+01  .197900000000D+04  .000000000000D+00
     .240000000000D+01  .000000000000D+00 -.111758708954D-07  .820000000000D+02
     .374406000000D+06  .400000000000D+01
 8 17 12 14 10  0  0.0 -.840602442622D-04 -.136424205266D-11  .000000000000D+00
     .440000000000D+02 -.765000000000D+02  .417231665088D-08 -.139340523726D+01
    -.412762165070D-05  .301802891772D-02  .101793557405D-04  .515373734283D+04
     .381600000000D+06 -.651925802231D-07 -.806301597949D+00 -.391155481339D-07
     .968346796788D+00  .189031250000D+03 -.623596601862D+00 -.789282876800D-08
    -.167864135072D-10  .100000000000D+01  .197900000000D+04  .000000000000D+00
     .240000000000D+01  .000000000000D+00  .558793544769D-08  .440000000000D+02
     .374406000000D+06  .400000000000D+01
 9 17 12 14 10  0  0.0  .482966192067D-03  .409272615798D-11  .000000000000D+00
     .690000000000D+02  .115625000000D+02  .455626121514D-08 -.162138971595D+01
     .512227416039D-06  .109867088031D-02  .113341957331D-04  .515372226524D+04
     .381600000000D+06  .745058059692D-08  .233505570138D+01  .931322574615D-08
     .952953380276D+00  .155718750000D+03  .172561093453D+01 -.793533053837D-08
    -.413231498465D-09  .100000000000D+01  .197900000000D+04  .000000000000D+00
     .340000000000D+01  .000000000000D+00  .931322574615D-09  .690000000000D+02
     .374406000000D+06  .400000000000D+01
10 17 12 14 10  0  0.0  .129166059196D-03  .670752342558D-11  .000000000000D+00
     .900000000000D+02 -.251250000000D+02  .492234789269D-08  .219502285094D+00
    -.142864882946D-05  .304174853954D-02  .517070293427D-05  .515366224670D+04
     .381600000000D+06 -.298023223877D-07  .129634475691D+01  .745058059692D-08
     .960109321596D+00  .277000000000D+03 -.288773621705D+01 -.828320217148D-08
    -.283226083217D-09  .100000000000D+01  .197900000000D+04  .000000000000D+00
     .340000000000D+01  .000000000000D+00  .186264514923D-08  .900000000000D+02
     .374406000000D+06  .400000000000D+01
12 17 12 14 10  0  0.0  .360440462828D-03 -.181898940355D-11  .000000000000D+00
     .550000000000D+02 -.278750000000D+02  .416053044565D-08  .949992728130D+00
    -.163353979588D-05  .666925043333D-02  .263936817646D-05  .515367473602D+04
     .381600000000D+06 -.409781932831D-07 -.178137951342D+01  .353902578354D-07
     .987720811931D+00  .342656250000D+03  .909506417622D+00 -.820355599675D-08
    -.154649298907D-09  .100000000000D+01  .197900000000D+04  .000000000000D+00
     .240000000000D+01  .000000000000D+00 -.125728547573D-07  .550000000000D+02
     .374406000000D+06  .400000000000D+01
13 17 12 14 10  0  0.0 -.947564840317D-04 -.227373675443D-12  .000000000000D+00
     .460000000000D+02  .199062500000D+02  .402516766439D-08  .290121793757D+01
     .111572444439D-05  .366639439017D-02  .113844871521D-04  .515366408920D+04
     .381600000000D+06 -.204890966415D-07  .246425978204D+01  .409781932831D-07
     .968950408491D+00  .164375000000D+03  .165501036905D+01 -.761138847345D-08
    -.317513225700D-09  .100000000000D+01  .197900000000D+04  .000000000000D+00
     .240000000000D+01  .000000000000D+00 -.116415321827D-07  .460000000000D+02
     .374406000000D+06  .400000000000D+01
14 17 12 14 10  0  0.0 -.905487686396D-04 -.682121026330D-12  .000000000000D+00
     .480000000000D+02  .302812500000D+02  .421624705218D-08 -.221186426669D+01
     .153481960297D-05  .924599799328D-02  .108331441879D-04  .515372281456D+04
     .381600000000D+06  .130385160446D-06  .242347319004D+01 -.100582838058D-06
     .961449246300D+00  .172812500000D+03 -.195216536398D+01 -.758103006605D-08
    -.302869758598D-09  .100000000000D+01  .197900000000D+04  .000000000000D+00
     .240000000000D+01  .000000000000D+00 -.977888703346D-08  .480000000000D+02
     .374406000000D+06  .400000000000D+01
